ICEYE-X53               
1 64584U 25135BJ  26191.29164431  .00000196  00000+0  20135-4 0  9992
2 64584  97.7366 307.9734 0001710 166.9870 193.1398 15.00874864 57544
ICEYE-X65               
1 66300U 25248H   26190.93952309  .00001945  00000+0  14071-3 0  9998
2 66300  45.4054  14.5380 0004928 169.9214 190.1767 15.07908239 38955
ICEYE-X66               
1 66301U 25248J   26190.47820417  .00002137  00000+0  14806-3 0  9992
2 66301  45.4022  16.1047 0004494 163.1595 196.9437 15.09153651 38876
ICEYE-X67               
1 66302U 25248K   26190.50282349  .00002288  00000+0  15752-3 0  9991
2 66302  45.4059  15.5506 0006105 163.8371 196.2707 15.09134816 38897
ICEYE-X58               
1 66751U 25276CP  26191.13553258  .00001539  00000+0  80570-4 0  9999
2 66751  97.4195 264.1180 0001919 241.0948 119.0093 15.17290879 33897
ICEYE-X59               
1 66752U 25276CQ  26191.21179544  .00003152  00000+0  25313-3 0  9997
2 66752  97.4377 261.5258 0000570 143.3764 216.7500 15.00724834 33724
ICEYE-X60               
1 66753U 25276CR  26191.25002315 -.00015938  00000+0 -94257-3 0  9993
2 66753  97.4179 263.2330 0001195 339.5550 111.2951 15.11418093  5807
ICEYE-X61               
1 66754U 25276CS  26191.15804408  .00002223  00000+0  11076-3 0  9995
2 66754  97.4194 264.2200 0001680 240.5051 119.6016 15.18591477 33909
ICEYE-X62               
1 66755U 25276CT  26189.73169495  .00001479  00000+0  94519-4 0  9993
2 66755  97.4194 261.2654 0000783 320.3388  39.7785 15.10117598 33582
ICEYE-X63               
1 67372U 26004K   26190.46975844  .00000688  00000+0  80246-4 0  9997
2 67372  97.8010 188.7614 0005686  65.8430 294.3381 14.88342422 26611
ICEYE-X64               
1 67373U 26004L   26190.98780067  .00000856  00000+0  99224-4 0  9999
2 67373  97.8024 189.1927 0007493  67.8157 292.3854 14.87979477 26680
ICEYE-X71               
1 68494U 26067CG  26190.59988441  .00001201  00000+0  12465-3 0  9992
2 68494  97.7615 148.4919 0001526   5.0801 355.0433 14.91776837 15060
ICEYE-X73               
1 68496U 26067CJ  26191.30017348  .00002114  00000+0  21229-3 0  9995
2 68496  97.7614 149.2635 0001149 153.7105 206.4173 14.92336562 15174
ICEYE-X75               
1 68497U 26067CK  26191.30409396  .00000820  00000+0  86022-4 0  9999
2 68497  97.7604 149.2369 0001002 151.7825 208.3448 14.92168072 15178
ICEYE-X74               
1 68500U 26067CN  26191.13562397  .00001239  00000+0  12844-3 0  9991
2 68500  97.7622 149.0293 0001276   0.8315 359.2905 14.91778831 15148
ICEYE-X76               
1 68502U 26067CQ  26190.59476962  .00000518  00000+0  56927-4 0  9994
2 68502  97.7637 148.5145 0001035 351.4143   8.7058 14.91743809 15066
