{"fetched_at":"2026-07-10T18:08:15.903Z","source":"https://celestrak.org/NORAD/elements/gp.php?NAME=ICEYE&FORMAT=JSON","constellation":"iceye","records":[{"OBJECT_NAME":"ICEYE-X53","OBJECT_ID":"2025-135BJ","EPOCH":"2026-07-10T06:59:58.068384","CLASSIFICATION_TYPE":"U","MEAN_MOTION":15.00874864,"ECCENTRICITY":0.00017104,"INCLINATION":97.7366,"RA_OF_ASC_NODE":307.9734,"ARG_OF_PERICENTER":166.987,"MEAN_ANOMALY":193.1398,"EPHEMERIS_TYPE":0,"NORAD_CAT_ID":64584,"ELEMENT_SET_NO":999,"REV_AT_EPOCH":5754,"BSTAR":0.00002013525,"MEAN_MOTION_DOT":0.00000196,"MEAN_MOTION_DDOT":0},{"OBJECT_NAME":"ICEYE-X65","OBJECT_ID":"2025-248H","EPOCH":"2026-07-09T22:32:54.794976","CLASSIFICATION_TYPE":"U","MEAN_MOTION":15.07908239,"ECCENTRICITY":0.0004928,"INCLINATION":45.4054,"RA_OF_ASC_NODE":14.538,"ARG_OF_PERICENTER":169.9214,"MEAN_ANOMALY":190.1767,"EPHEMERIS_TYPE":0,"NORAD_CAT_ID":66300,"ELEMENT_SET_NO":999,"REV_AT_EPOCH":3895,"BSTAR":0.00014071479,"MEAN_MOTION_DOT":0.00001945,"MEAN_MOTION_DDOT":0},{"OBJECT_NAME":"ICEYE-X66","OBJECT_ID":"2025-248J","EPOCH":"2026-07-09T11:28:36.840288","CLASSIFICATION_TYPE":"U","MEAN_MOTION":15.09153651,"ECCENTRICITY":0.0004494,"INCLINATION":45.4022,"RA_OF_ASC_NODE":16.1047,"ARG_OF_PERICENTER":163.1595,"MEAN_ANOMALY":196.9437,"EPHEMERIS_TYPE":0,"NORAD_CAT_ID":66301,"ELEMENT_SET_NO":999,"REV_AT_EPOCH":3887,"BSTAR":0.00014806227,"MEAN_MOTION_DOT":0.00002137,"MEAN_MOTION_DDOT":0},{"OBJECT_NAME":"ICEYE-X67","OBJECT_ID":"2025-248K","EPOCH":"2026-07-09T12:04:03.949536","CLASSIFICATION_TYPE":"U","MEAN_MOTION":15.09134816,"ECCENTRICITY":0.00061056,"INCLINATION":45.4059,"RA_OF_ASC_NODE":15.5506,"ARG_OF_PERICENTER":163.8371,"MEAN_ANOMALY":196.2707,"EPHEMERIS_TYPE":0,"NORAD_CAT_ID":66302,"ELEMENT_SET_NO":999,"REV_AT_EPOCH":3889,"BSTAR":0.00015751656,"MEAN_MOTION_DOT":0.00002288,"MEAN_MOTION_DDOT":0},{"OBJECT_NAME":"ICEYE-X58","OBJECT_ID":"2025-276CP","EPOCH":"2026-07-10T03:15:10.014912","CLASSIFICATION_TYPE":"U","MEAN_MOTION":15.17290879,"ECCENTRICITY":0.00019191,"INCLINATION":97.4195,"RA_OF_ASC_NODE":264.118,"ARG_OF_PERICENTER":241.0948,"MEAN_ANOMALY":119.0093,"EPHEMERIS_TYPE":0,"NORAD_CAT_ID":66751,"ELEMENT_SET_NO":999,"REV_AT_EPOCH":3389,"BSTAR":0.000080569775,"MEAN_MOTION_DOT":0.00001539,"MEAN_MOTION_DDOT":0},{"OBJECT_NAME":"ICEYE-X59","OBJECT_ID":"2025-276CQ","EPOCH":"2026-07-10T05:04:59.126016","CLASSIFICATION_TYPE":"U","MEAN_MOTION":15.00724834,"ECCENTRICITY":0.00005702,"INCLINATION":97.4377,"RA_OF_ASC_NODE":261.5258,"ARG_OF_PERICENTER":143.3764,"MEAN_ANOMALY":216.75,"EPHEMERIS_TYPE":0,"NORAD_CAT_ID":66752,"ELEMENT_SET_NO":999,"REV_AT_EPOCH":3372,"BSTAR":0.00025313016,"MEAN_MOTION_DOT":0.00003152,"MEAN_MOTION_DDOT":0},{"OBJECT_NAME":"ICEYE-X60","OBJECT_ID":"2025-276CR","EPOCH":"2026-07-10T06:00:02.000160","CLASSIFICATION_TYPE":"U","MEAN_MOTION":15.11418093,"ECCENTRICITY":0.00011954,"INCLINATION":97.4179,"RA_OF_ASC_NODE":263.233,"ARG_OF_PERICENTER":339.555,"MEAN_ANOMALY":111.2951,"EPHEMERIS_TYPE":0,"NORAD_CAT_ID":66753,"ELEMENT_SET_NO":999,"REV_AT_EPOCH":580,"BSTAR":-0.00094256571,"MEAN_MOTION_DOT":-0.00015938,"MEAN_MOTION_DDOT":0},{"OBJECT_NAME":"ICEYE-X61","OBJECT_ID":"2025-276CS","EPOCH":"2026-07-10T03:47:35.008512","CLASSIFICATION_TYPE":"U","MEAN_MOTION":15.18591477,"ECCENTRICITY":0.00016809,"INCLINATION":97.4194,"RA_OF_ASC_NODE":264.22,"ARG_OF_PERICENTER":240.5051,"MEAN_ANOMALY":119.6016,"EPHEMERIS_TYPE":0,"NORAD_CAT_ID":66754,"ELEMENT_SET_NO":999,"REV_AT_EPOCH":3390,"BSTAR":0.00011075706,"MEAN_MOTION_DOT":0.00002223,"MEAN_MOTION_DDOT":0},{"OBJECT_NAME":"ICEYE-X62","OBJECT_ID":"2025-276CT","EPOCH":"2026-07-08T17:33:38.443680","CLASSIFICATION_TYPE":"U","MEAN_MOTION":15.10117598,"ECCENTRICITY":0.00007834,"INCLINATION":97.4194,"RA_OF_ASC_NODE":261.2654,"ARG_OF_PERICENTER":320.3388,"MEAN_ANOMALY":39.7785,"EPHEMERIS_TYPE":0,"NORAD_CAT_ID":66755,"ELEMENT_SET_NO":999,"REV_AT_EPOCH":3358,"BSTAR":0.000094518905,"MEAN_MOTION_DOT":0.00001479,"MEAN_MOTION_DDOT":0},{"OBJECT_NAME":"ICEYE-X63","OBJECT_ID":"2026-004K","EPOCH":"2026-07-09T11:16:27.129216","CLASSIFICATION_TYPE":"U","MEAN_MOTION":14.88342422,"ECCENTRICITY":0.00056862,"INCLINATION":97.801,"RA_OF_ASC_NODE":188.7614,"ARG_OF_PERICENTER":65.843,"MEAN_ANOMALY":294.3381,"EPHEMERIS_TYPE":0,"NORAD_CAT_ID":67372,"ELEMENT_SET_NO":999,"REV_AT_EPOCH":2661,"BSTAR":0.00008024555,"MEAN_MOTION_DOT":0.00000688,"MEAN_MOTION_DDOT":0},{"OBJECT_NAME":"ICEYE-X64","OBJECT_ID":"2026-004L","EPOCH":"2026-07-09T23:42:25.977888","CLASSIFICATION_TYPE":"U","MEAN_MOTION":14.87979477,"ECCENTRICITY":0.00074936,"INCLINATION":97.8024,"RA_OF_ASC_NODE":189.1927,"ARG_OF_PERICENTER":67.8157,"MEAN_ANOMALY":292.3854,"EPHEMERIS_TYPE":0,"NORAD_CAT_ID":67373,"ELEMENT_SET_NO":999,"REV_AT_EPOCH":2668,"BSTAR":0.000099223513,"MEAN_MOTION_DOT":0.00000856,"MEAN_MOTION_DDOT":0},{"OBJECT_NAME":"ICEYE-X71","OBJECT_ID":"2026-067CG","EPOCH":"2026-07-09T14:23:50.013024","CLASSIFICATION_TYPE":"U","MEAN_MOTION":14.91776837,"ECCENTRICITY":0.0001526,"INCLINATION":97.7615,"RA_OF_ASC_NODE":148.4919,"ARG_OF_PERICENTER":5.0801,"MEAN_ANOMALY":355.0433,"EPHEMERIS_TYPE":0,"NORAD_CAT_ID":68494,"ELEMENT_SET_NO":999,"REV_AT_EPOCH":1506,"BSTAR":0.00012464905,"MEAN_MOTION_DOT":0.00001201,"MEAN_MOTION_DDOT":0},{"OBJECT_NAME":"ICEYE-X73","OBJECT_ID":"2026-067CJ","EPOCH":"2026-07-10T07:12:14.988672","CLASSIFICATION_TYPE":"U","MEAN_MOTION":14.92336562,"ECCENTRICITY":0.00011496,"INCLINATION":97.7614,"RA_OF_ASC_NODE":149.2635,"ARG_OF_PERICENTER":153.7105,"MEAN_ANOMALY":206.4173,"EPHEMERIS_TYPE":0,"NORAD_CAT_ID":68496,"ELEMENT_SET_NO":999,"REV_AT_EPOCH":1517,"BSTAR":0.00021228733,"MEAN_MOTION_DOT":0.00002114,"MEAN_MOTION_DDOT":0},{"OBJECT_NAME":"ICEYE-X75","OBJECT_ID":"2026-067CK","EPOCH":"2026-07-10T07:17:53.718144","CLASSIFICATION_TYPE":"U","MEAN_MOTION":14.92168072,"ECCENTRICITY":0.00010024,"INCLINATION":97.7604,"RA_OF_ASC_NODE":149.2369,"ARG_OF_PERICENTER":151.7825,"MEAN_ANOMALY":208.3448,"EPHEMERIS_TYPE":0,"NORAD_CAT_ID":68497,"ELEMENT_SET_NO":999,"REV_AT_EPOCH":1517,"BSTAR":0.000086022275,"MEAN_MOTION_DOT":0.0000082,"MEAN_MOTION_DDOT":0},{"OBJECT_NAME":"ICEYE-X74","OBJECT_ID":"2026-067CN","EPOCH":"2026-07-10T03:15:17.911008","CLASSIFICATION_TYPE":"U","MEAN_MOTION":14.91778831,"ECCENTRICITY":0.00012764,"INCLINATION":97.7622,"RA_OF_ASC_NODE":149.0293,"ARG_OF_PERICENTER":0.8315,"MEAN_ANOMALY":359.2905,"EPHEMERIS_TYPE":0,"NORAD_CAT_ID":68500,"ELEMENT_SET_NO":999,"REV_AT_EPOCH":1514,"BSTAR":0.00012844254,"MEAN_MOTION_DOT":0.00001239,"MEAN_MOTION_DDOT":0},{"OBJECT_NAME":"ICEYE-X76","OBJECT_ID":"2026-067CQ","EPOCH":"2026-07-09T14:16:28.095168","CLASSIFICATION_TYPE":"U","MEAN_MOTION":14.91743809,"ECCENTRICITY":0.00010351,"INCLINATION":97.7637,"RA_OF_ASC_NODE":148.5145,"ARG_OF_PERICENTER":351.4143,"MEAN_ANOMALY":8.7058,"EPHEMERIS_TYPE":0,"NORAD_CAT_ID":68502,"ELEMENT_SET_NO":999,"REV_AT_EPOCH":1506,"BSTAR":0.000056926762,"MEAN_MOTION_DOT":0.00000518,"MEAN_MOTION_DDOT":0}]}
